{"fetched_at":"2026-03-30T13:17:50Z","count":15418,"tles":[{"name":"ALOS-4 (DAICHI-4)","line1":"1 60182U 24123A   26085.84932095  .00001752  00000+0  24134-3 0  9991","line2":"2 60182  97.9192 184.1997 0001538 100.5153 259.6232 14.79479083 93707","category":"Other"}]}